STARLINK-5447           
1 54779U 22175X   26068.19674391 -.00000815  00000+0 -33152-4 0  9994
2 54779  53.2191  31.4361 0001268  93.8484 266.2653 15.08831851180050
CSC-1                   
1 58022U 23155G   26068.74030489  .00008819  00000+0  54557-3 0  9994
2 58022  97.5446 139.7305 0007504 212.9992 147.0770 15.10035960132723
